{
    "links": {
        "self": "http://www.neowsapp.com/rest/v1/neo/3076549?api_key=iIulBulltgU6a56xZRHN4H3l9WmuAYTsLGpBGhQ2"
    },
    "id": "3076549",
    "neo_reference_id": "3076549",
    "name": "(2000 WX28)",
    "designation": "2000 WX28",
    "nasa_jpl_url": "http://ssd.jpl.nasa.gov/sbdb.cgi?sstr=3076549",
    "absolute_magnitude_h": 20.8,
    "estimated_diameter": {
        "kilometers": {
            "estimated_diameter_min": 0.1838886721,
            "estimated_diameter_max": 0.411187571
        },
        "meters": {
            "estimated_diameter_min": 183.8886720703,
            "estimated_diameter_max": 411.1875710413
        },
        "miles": {
            "estimated_diameter_min": 0.1142630881,
            "estimated_diameter_max": 0.2555000322
        },
        "feet": {
            "estimated_diameter_min": 603.309310875,
            "estimated_diameter_max": 1349.040630575
        }
    },
    "is_potentially_hazardous_asteroid": false,
    "close_approach_data": [
        {
            "close_approach_date": "1910-12-12",
            "close_approach_date_full": "1910-Dec-12 03:04",
            "epoch_date_close_approach": -1863636960000,
            "relative_velocity": {
                "kilometers_per_second": "8.5501713048",
                "kilometers_per_hour": "30780.6166974293",
                "miles_per_hour": "19125.8781917999"
            },
            "miss_distance": {
                "astronomical": "0.171708116",
                "lunar": "66.794457124",
                "kilometers": "25687168.41531292",
                "miles": "15961266.319521496"
            },
            "orbiting_body": "Earth"
        },
        {
            "close_approach_date": "1959-10-27",
            "close_approach_date_full": "1959-Oct-27 09:26",
            "epoch_date_close_approach": -321287640000,
            "relative_velocity": {
                "kilometers_per_second": "7.6900190504",
                "kilometers_per_hour": "27684.0685814244",
                "miles_per_hour": "17201.8036138301"
            },
            "miss_distance": {
                "astronomical": "1.7616832754",
                "lunar": "685.2947941306",
                "kilometers": "263544065.614463398",
                "miles": "163758688.7815269724"
            },
            "orbiting_body": "Juptr"
        },
        {
            "close_approach_date": "1983-08-01",
            "close_approach_date_full": "1983-Aug-01 06:56",
            "epoch_date_close_approach": 428568960000,
            "relative_velocity": {
                "kilometers_per_second": "8.1304793974",
                "kilometers_per_hour": "29269.7258304888",
                "miles_per_hour": "18187.0693639501"
            },
            "miss_distance": {
                "astronomical": "1.9064756982",
                "lunar": "741.6190465998",
                "kilometers": "285204703.657482834",
                "miles": "177217985.1455937492"
            },
            "orbiting_body": "Juptr"
        },
        {
            "close_approach_date": "2000-11-17",
            "close_approach_date_full": "2000-Nov-17 02:33",
            "epoch_date_close_approach": 974428380000,
            "relative_velocity": {
                "kilometers_per_second": "6.1645677743",
                "kilometers_per_hour": "22192.4439873386",
                "miles_per_hour": "13789.5216542438"
            },
            "miss_distance": {
                "astronomical": "0.1834323545",
                "lunar": "71.3551859005",
                "kilometers": "27441089.522284915",
                "miles": "17051102.359025227"
            },
            "orbiting_body": "Earth"
        }
    ],
    "orbital_data": {
        "orbit_id": "13",
        "orbit_determination_date": "2017-04-06 09:16:41",
        "first_observation_date": "2000-11-23",
        "last_observation_date": "2001-03-24",
        "data_arc_in_days": 121,
        "observations_used": 35,
        "orbit_uncertainty": "6",
        "minimum_orbit_intersection": ".182915",
        "jupiter_tisserand_invariant": "3.009",
        "epoch_osculation": "2459000.5",
        "eccentricity": ".5980199807357524",
        "semi_major_axis": "2.844850227357892",
        "inclination": "5.438797782496203",
        "ascending_node_longitude": "173.8049178992208",
        "orbital_period": "1752.619088483839",
        "perihelion_distance": "1.143572949197225",
        "perihelion_argument": "251.1269737373956",
        "aphelion_distance": "4.54612750551856",
        "perihelion_time": "2458890.756289109576",
        "mean_anomaly": "22.54211207680621",
        "mean_motion": ".205406869276672",
        "equinox": "J2000",
        "orbit_class": {
            "orbit_class_type": "AMO",
            "orbit_class_description": "Near-Earth asteroid orbits similar to that of 1221 Amor",
            "orbit_class_range": "1.017 AU < q (perihelion) < 1.3 AU"
        }
    },
    "is_sentry_object": false
}